KUIPER-00089            
1 64834U 25151U   25292.00003472 -.01084852  00000+0 -80680-1 0  9997
2 64834  51.8926 193.7706 0003295 140.2145 103.9801 15.05494662  5589
KUIPER-00090            
1 64835U 25151V   25292.00003472  .00029688  00000+0  12465-2 0  9998
2 64835  51.8850 191.1957 0005499 165.1112 211.3310 15.23202682  4828
KUIPER-00091            
1 64836U 25151W   25292.00003472 -.00922275  00000+0 -57160-1 0  9995
2 64836  51.8888 192.6337 0007787 152.8816 201.7960 15.12070162  4642
KUIPER-00092            
1 64837U 25151X   25292.00003472 -.00864959  00000+0 -97841-1 0  9990
2 64837  51.8959 197.3206 0007313 127.3699 169.4567 14.88667566  2621
KUIPER-00093            
1 64838U 25151Y   25292.00003472 -.00109028  00000+0 -14114-1 0  9992
2 64838  51.8996 199.6419 0014447 138.9713 275.8533 14.80987696  2283
KUIPER-00094            
1 64839U 25151Z   25292.00003472 -.00003902  00000+0 -24176-3 0  9998
2 64839  51.8877 193.8477 0007053 142.7547 320.1905 15.06540041  5238
KUIPER-00081            
1 65132U 25171A   25291.81146148  .00072461  00000+0  19103-2 0  9990
2 65132  51.8740  74.8900 0004774   2.6677 357.4335 15.37832083 11756
KUIPER-00088            
1 65133U 25171B   25292.00003472 -.00581146  00000+0 -31617-1 0  9995
2 65133  51.8950  75.7292 0006054   1.4267 190.7758 15.16331795  5648
